CAS-2T & KS-1Q          
1 41847U 16066G   21167.57050582  .00000120  00000-0  28943-4 0  9995
2 41847  98.6010 226.6983 0364444 222.8946 134.3285 14.38196363241753
NAYIF-1 (EO-88)         
1 42017U 17008BX  21167.44786718  .00002644  00000-0  98849-4 0  9990
2 42017  97.3153 235.0655 0007719 108.7526 251.4552 15.28192007241100
ZHUHAI-1 02 (CAS-4B)    
1 42759U 17034B   21167.50855275  .00000350  00000-0  34362-4 0  9996
2 42759  43.0162 186.2767 0007774 166.0092 323.2070 15.10228974221002
ZHUHAI-1 01 (CAS-4A)    
1 42761U 17034D   21167.49952260  .00000316  00000-0  32260-4 0  9996
2 42761  43.0160 185.3817 0008252 167.6155 321.2644 15.10315646221006
MAX VALIER SAT          
1 42778U 17036P   21167.58147375  .00001519  00000-0  66176-4 0  9998
2 42778  97.2547 216.2210 0012126 170.8258 189.3203 15.23616361221152
RADFXSAT (FOX-1B)       
1 43017U 17073E   21167.52171829  .00000687  00000-0  58886-4 0  9995
2 43017  97.7071  71.5457 0253667 303.6659  54.0591 14.79566634192982
FOX-1D (AO-92)          
1 43137U 18004AC  21167.47996403  .00001637  00000-0  67934-4 0  9990
2 43137  97.4066 241.5210 0008027 204.5088 155.5770 15.25263966190512
DIWATA-2B               
1 43678U 18084H   21167.58156077  .00000418  00000-0  47206-4 0  9991
2 43678  97.9241 292.8558 0011163  58.6009 301.6314 14.91756949143305
ES'HAIL 2               
1 43700U 18090A   21167.48775463  .00000152  00000-0  00000-0 0  9991
2 43700   0.0140 319.0824 0001153 147.6950 359.6192  1.00274119  9368
FOX-1CLIFF (AO-95)      
1 43770U 18099N   21167.44621546  .00000091  00000-0  13406-4 0  9995
2 43770  97.6647 237.6557 0015806  64.1524 296.1325 14.95327863138300
ITASAT 1                
1 43786U 18099AE  21167.43252937  .00000086  00000-0  12862-4 0  9994
2 43786  97.6670 238.3195 0016478  57.6733 302.6082 14.95624024138339
JY1SAT (JO-97)          
1 43803U 18099AX  21167.46346014  .00000612  00000-0  59754-4 0  9993
2 43803  97.6627 238.1016 0016247  57.9737 302.3060 14.95867558138347
UWE-4                   
1 43880U 18111E   21167.24718942  .00000037  00000-0  82272-5 0  9995
2 43880  97.6877  75.0013 0013696 104.9859 255.2880 14.96876424134904
PSAT2 (NO-104)          
1 44354U 19036R   21167.24993866  .00012111  00000-0  15787-3 0  9990
2 44354  28.5297 135.0684 0325511 262.9684  93.3788 15.13467497108796
BRICSAT2 (NO-103)       
1 44355U 19036S   21167.16589705  .00038552  00000-0  42331-3 0  9997
2 44355  28.5264  90.8050 0263785 335.1237  23.6845 15.29494803109235
JAISAT-1                
1 44419U 19038F   21167.44837271  .00001339  00000-0  77649-4 0  9999
2 44419  97.5883 132.1525 0019945 319.8413  40.1343 15.13772095107643
DUCHIFAT-3              
1 44854U 19089C   21167.19515025  .00000554  00000-0  50680-4 0  9994
2 44854  36.9646 108.0745 0006950 132.5411 227.5929 14.99502933 82914
RS-44 & BREEZE-KM R/B   
1 44909U 19096E   21167.53314871  .00000041  00000-0  11210-3 0  9993
2 44909  82.5207 113.4245 0218557  95.1929 267.4152 12.79710225 68709
ORBITAL FACTORY 2 (OF-2)
1 45113U 19071C   21167.36425079  .00002276  00000-0  75288-4 0  9996
2 45113  51.6432  42.7937 0011171 290.9188  69.0598 15.35771796 77009
HUSKYSAT-1 (HO-107)     
1 45119U 19071J   21167.50581751  .00002789  00000-0  89676-4 0  9993
2 45119  51.6428  41.4845 0010586 287.7951  72.1877 15.35799129 77022
BY70-2                  
1 45857U 20042B   21167.49342342  .00001368  00000-0  20120-3 0  9991
2 45857  97.9840 243.2502 0010371 207.9117 152.1540 14.77031741 51408
SALSAT                  
1 46495U 20068K   21167.59581996 -.00000345  00000-0 -20704-4 0  9994
2 46495  97.6950 105.0968 0018880  74.9470 285.3843 15.03455774 39209
BY70-3                  
1 46839U 20079N   21167.47573399  .00003634  00000-0  11391-3 0  9996
2 46839  97.2401 241.3510 0006424 196.8287 290.9289 15.33683276 34053
RADFXSAT-2 (AO-109)     
1 47311U 21002C   21167.56955135  .00001270  00000-0  66979-4 0  9998
2 47311  60.6848 294.5041 0036666  47.6681 312.7502 15.21654674 22739
UVSQ-SAT                
1 47438U 21006AB  21167.38969025  .00001084  00000-0  64697-4 0  9993
2 47438  97.4872 228.6325 0014452 101.0385 259.2473 15.13140742 21897
DIY-1 (ARDUIQUBE)       
1 47963U 21022AH  21167.49864819  .00001801  00000-0  12322-3 0  9995
2 47963  97.5581  69.8492 0018481 312.7946  47.1727 15.07249266 11752
